GLOBALSTAR M094         
1 39074U 13005C   25330.74161738 -.00000102  00000+0  11260-4 0  9999
2 39074  51.9975  47.1853 0000354 144.1684 215.9207 12.62264938592903
GLOBALSTAR M096         
1 39075U 13005D   25330.67553595 -.00000091  00000+0  73523-4 0  9995
2 39075  52.0068  96.0264 0000716 126.6046 233.4887 12.62269018591819
GLOBALSTAR M078         
1 39076U 13005E   25330.96634869 -.00000096  00000+0  42871-4 0  9999
2 39076  51.9848 179.4360 0001256 132.1469 227.9504 12.62272190590478
GLOBALSTAR M095         
1 39077U 13005F   25330.99249832 -.00000087  00000+0  92389-4 0  9994
2 39077  52.0049 176.6721 0000839 109.6793 250.4164 12.62266989590336
GLOBALSTAR M087         
1 52888U 22064A   25330.37197402 -.00000089  00000+0  84475-4 0  9990
2 52888  52.0010 319.9131 0000142  57.5796 302.5084 12.62260659165524
